{
  "type": "FeatureCollection",
  "features": [
    {
      "type": "Feature",
      "properties": {
        "norad_id": 34634,
        "name": "COSMOS 2251 DEB",
        "group": "cosmos-2251-debris",
        "lat": 67.0258669209527,
        "lon": -171.49783540305276,
        "alt_km": 681.775131978904,
        "timestamp": "2025-12-04T07:39:36.526622+00:00",
        "meta_object_name": "COSMOS 2251 DEB",
        "meta_object_id": "1993-036XF",
        "meta_epoch": "2025-12-03T04:55:03.889632",
        "meta_mean_motion": 14.55607531,
        "meta_eccentricity": 0.00447165,
        "meta_inclination": 74.0529,
        "meta_ra_of_asc_node": 53.0232,
        "meta_arg_of_pericenter": 163.1109,
        "meta_mean_anomaly": 227.4386,
        "meta_ephemeris_type": 0,
        "meta_classification_type": "U",
        "meta_norad_cat_id": 34634,
        "meta_element_set_no": 999,
        "meta_rev_at_epoch": 88643,
        "meta_bstar": 0.00055498013,
        "meta_mean_motion_dot": 2.426e-05,
        "meta_mean_motion_ddot": 0,
        "tle_line1": "1 34634U 93036XF  25337.20490613  .00002426  00000+0  55498-3 0  9993",
        "tle_line2": "2 34634  74.0529  53.0232 0044716 163.1109 227.4386 14.55607531886435"
      },
      "geometry": {
        "type": "Point",
        "coordinates": [
          -171.49783540305276,
          67.0258669209527
        ]
      }
    },
    {
      "type": "Feature",
      "properties": {
        "norad_id": 34635,
        "name": "COSMOS 2251 DEB",
        "group": "cosmos-2251-debris",
        "lat": -47.98020360776438,
        "lon": 68.47304459869271,
        "alt_km": 692.0132769366355,
        "timestamp": "2025-12-04T07:39:36.526631+00:00",
        "meta_object_name": "COSMOS 2251 DEB",
        "meta_object_id": "1993-036XG",
        "meta_epoch": "2025-12-03T09:16:59.475936",
        "meta_mean_motion": 14.6802345,
        "meta_eccentricity": 0.00295944,
        "meta_inclination": 74.0454,
        "meta_ra_of_asc_node": 88.7852,
        "meta_arg_of_pericenter": 160.579,
        "meta_mean_anomaly": 263.2582,
        "meta_ephemeris_type": 0,
        "meta_classification_type": "U",
        "meta_norad_cat_id": 34635,
        "meta_element_set_no": 999,
        "meta_rev_at_epoch": 73082,
        "meta_bstar": 0.0020277546,
        "meta_mean_motion_dot": 0.00011695,
        "meta_mean_motion_ddot": 0,
        "tle_line1": "1 34635U 93036XG  25337.38679949  .00011695  00000+0  20278-2 0  9999",
        "tle_line2": "2 34635  74.0454  88.7852 0029594 160.5790 263.2582 14.68023450730823"
      },
      "geometry": {
        "type": "Point",
        "coordinates": [
          68.47304459869271,
          -47.98020360776438
        ]
      }
    },
    {
      "type": "Feature",
      "properties": {
        "norad_id": 34637,
        "name": "COSMOS 2251 DEB",
        "group": "cosmos-2251-debris",
        "lat": 24.602332545115473,
        "lon": 124.73921257454543,
        "alt_km": 726.7251998053298,
        "timestamp": "2025-12-04T07:39:36.526641+00:00",
        "meta_object_name": "COSMOS 2251 DEB",
        "meta_object_id": "1993-036XJ",
        "meta_epoch": "2025-12-03T08:38:20.779008",
        "meta_mean_motion": 14.59934348,
        "meta_eccentricity": 0.0050664,
        "meta_inclination": 74.0477,
        "meta_ra_of_asc_node": 119.0417,
        "meta_arg_of_pericenter": 191.6838,
        "meta_mean_anomaly": 194.9044,
        "meta_ephemeris_type": 0,
        "meta_classification_type": "U",
        "meta_norad_cat_id": 34637,
        "meta_element_set_no": 999,
        "meta_rev_at_epoch": 88390,
        "meta_bstar": 0.0016283,
        "meta_mean_motion_dot": 7.923e-05,
        "meta_mean_motion_ddot": 0,
        "tle_line1": "1 34637U 93036XJ  25337.35996272  .00007923  00000+0  16283-2 0  9999",
        "tle_line2": "2 34637  74.0477 119.0417 0050664 191.6838 194.9044 14.59934348883903"
      },
      "geometry": {
        "type": "Point",
        "coordinates": [
          124.73921257454543,
          24.602332545115473
        ]
      }
    },
    {
      "type": "Feature",
      "properties": {
        "norad_id": 34641,
        "name": "COSMOS 2251 DEB",
        "group": "cosmos-2251-debris",
        "lat": -71.55131091505143,
        "lon": -21.919838274354646,
        "alt_km": 731.558286789339,
        "timestamp": "2025-12-04T07:39:36.526649+00:00",
        "meta_object_name": "COSMOS 2251 DEB",
        "meta_object_id": "1993-036XN",
        "meta_epoch": "2025-12-02T10:04:27.186240",
        "meta_mean_motion": 14.51860624,
        "meta_eccentricity": 0.00174848,
        "meta_inclination": 73.8377,
        "meta_ra_of_asc_node": 101.3202,
        "meta_arg_of_pericenter": 19.4191,
        "meta_mean_anomaly": 38.0033,
        "meta_ephemeris_type": 0,
        "meta_classification_type": "U",
        "meta_norad_cat_id": 34641,
        "meta_element_set_no": 999,
        "meta_rev_at_epoch": 88106,
        "meta_bstar": 0.0013562566,
        "meta_mean_motion_dot": 5.449e-05,
        "meta_mean_motion_ddot": 0,
        "tle_line1": "1 34641U 93036XN  25336.41975910  .00005449  00000+0  13563-2 0  9995",
        "tle_line2": "2 34641  73.8377 101.3202 0017484  19.4191  38.0033 14.51860624881060"
      },
      "geometry": {
        "type": "Point",
        "coordinates": [
          -21.919838274354646,
          -71.55131091505143
        ]
      }
    },
    {
      "type": "Feature",
      "properties": {
        "norad_id": 34642,
        "name": "COSMOS 2251 DEB",
        "group": "cosmos-2251-debris",
        "lat": 29.074141885552017,
        "lon": 165.2108275122043,
        "alt_km": 759.7512125936273,
        "timestamp": "2025-12-04T07:39:36.526659+00:00",
        "meta_object_name": "COSMOS 2251 DEB",
        "meta_object_id": "1993-036XP",
        "meta_epoch": "2025-12-03T19:46:36.748416",
        "meta_mean_motion": 13.98929953,
        "meta_eccentricity": 0.02080507,
        "meta_inclination": 74.0052,
        "meta_ra_of_asc_node": 355.2445,
        "meta_arg_of_pericenter": 177.1299,
        "meta_mean_anomaly": 0.8483,
        "meta_ephemeris_type": 0,
        "meta_classification_type": "U",
        "meta_norad_cat_id": 34642,
        "meta_element_set_no": 999,
        "meta_rev_at_epoch": 85168,
        "meta_bstar": 0.001499188,
        "meta_mean_motion_dot": 2.582e-05,
        "meta_mean_motion_ddot": 0,
        "tle_line1": "1 34642U 93036XP  25337.82403644  .00002582  00000+0  14992-2 0  9994",
        "tle_line2": "2 34642  74.0052 355.2445 0208050 177.1299   0.8483 13.98929953851687"
      },
      "geometry": {
        "type": "Point",
        "coordinates": [
          165.2108275122043,
          29.074141885552017
        ]
      }
    },
    {
      "type": "Feature",
      "properties": {
        "norad_id": 34671,
        "name": "COSMOS 2251 DEB",
        "group": "cosmos-2251-debris",
        "lat": -73.13472797966719,
        "lon": 79.65173692085884,
        "alt_km": 672.8235721522306,
        "timestamp": "2025-12-04T07:39:36.526668+00:00",
        "meta_object_name": "COSMOS 2251 DEB",
        "meta_object_id": "1993-036XR",
        "meta_epoch": "2025-12-02T18:28:46.543296",
        "meta_mean_motion": 14.66635988,
        "meta_eccentricity": 0.00121385,
        "meta_inclination": 74.0249,
        "meta_ra_of_asc_node": 153.5364,
        "meta_arg_of_pericenter": 231.9142,
        "meta_mean_anomaly": 147.1832,
        "meta_ephemeris_type": 0,
        "meta_classification_type": "U",
        "meta_norad_cat_id": 34671,
        "meta_element_set_no": 999,
        "meta_rev_at_epoch": 88151,
        "meta_bstar": 0.0019192945,
        "meta_mean_motion_dot": 0.00010666,
        "meta_mean_motion_ddot": 0,
        "tle_line1": "1 34671U 93036XR  25336.76998314  .00010666  00000+0  19193-2 0  9991",
        "tle_line2": "2 34671  74.0249 153.5364 0012138 231.9142 147.1832 14.66635988881518"
      },
      "geometry": {
        "type": "Point",
        "coordinates": [
          79.65173692085884,
          -73.13472797966719
        ]
      }
    },
    {
      "type": "Feature",
      "properties": {
        "norad_id": 34672,
        "name": "COSMOS 2251 DEB",
        "group": "cosmos-2251-debris",
        "lat": -60.1653818302784,
        "lon": -68.885379725403,
        "alt_km": 779.9286470905417,
        "timestamp": "2025-12-04T07:39:36.526677+00:00",
        "meta_object_name": "COSMOS 2251 DEB",
        "meta_object_id": "1993-036XS",
        "meta_epoch": "2025-12-03T05:16:26.844096",
        "meta_mean_motion": 14.36383689,
        "meta_eccentricity": 0.0023434,
        "meta_inclination": 74.0334,
        "meta_ra_of_asc_node": 323.0813,
        "meta_arg_of_pericenter": 37.198,
        "meta_mean_anomaly": 335.8708,
        "meta_ephemeris_type": 0,
        "meta_classification_type": "U",
        "meta_norad_cat_id": 34672,
        "meta_element_set_no": 999,
        "meta_rev_at_epoch": 65041,
        "meta_bstar": 0.00037825,
        "meta_mean_motion_dot": 1.085e-05,
        "meta_mean_motion_ddot": 0,
        "tle_line1": "1 34672U 93036XS  25337.21975514  .00001085  00000+0  37825-3 0  9998",
        "tle_line2": "2 34672  74.0334 323.0813 0023434  37.1980 335.8708 14.36383689650410"
      },
      "geometry": {
        "type": "Point",
        "coordinates": [
          -68.885379725403,
          -60.1653818302784
        ]
      }
    }
  ]
}